ONEWEB-0233             
1 48795U 21045AE  25361.20531657  .00000231  00000+0  57937-3 0  9990
2 48795  87.9010 293.5627 0001757  66.7015 293.4301 13.15546068221689
ONEWEB-0190             
1 48796U 21045AF  25361.26884125  .00000237  00000+0  59597-3 0  9998
2 48796  87.9003 293.5118 0002104  54.9628 305.1699 13.15550267221769
ONEWEB-0236             
1 48797U 21045AG  25361.28626498  .00000056  00000+0  11509-3 0  9998
2 48797  87.9010 293.5198 0001690  79.1990 280.9330 13.15546915221651
ONEWEB-0248             
1 48798U 21045AH  25361.22289493 -.00000029  00000+0 -11090-3 0  9990
2 48798  87.9018 293.4982 0001631  57.3248 302.8040 13.15547166221807
ONEWEB-0225             
1 48799U 21045AJ  25361.24507418  .00000086  00000+0  19483-3 0  9998
2 48799  87.9002 293.5158 0002014  59.1962 300.9366 13.15547617221818
ONEWEB-0215             
1 48800U 21045AK  25361.29101600  .00000043  00000+0  79860-4 0  9998
2 48800  87.9024 293.4701 0001914  54.4386 305.6923 13.15546763221692
ONEWEB-0216             
1 48801U 21045AL  25361.30053116 -.00000098  00000+0 -29310-3 0  9995
2 48801  87.9010 293.4960 0001963  76.4853 283.6496 13.15547304221706
ONEWEB-0239             
1 48802U 21045AM  25361.30528656 -.00000067  00000+0 -21255-3 0  9998
2 48802  87.9005 293.5104 0001622  49.1532 310.9739 13.15547186221741
